0 SL-8 DEB
1 21918U 91009CB  13282.97332757 -.00000035  00000-0 -18536-3 0    08
2 21918 074.0802 247.6899 0126225 333.9147 084.0296 12.21625616  6273
0 SL-8 DEB
1 21918U 91009CB  13285.83208932  .00000073  00000-0  81317-3 0    11
2 21918 074.0805 244.0983 0126243 329.9173 056.3515 12.21624912  6628
0 SL-8 DEB
1 21918U 91009CB  13289.30063045  .00000010  00000-0  22958-3 0    29
2 21918 074.0811 239.7411 0126213 325.0468 190.3869 12.21626266  7056
0 SL-8 DEB
1 21918U 91009CB  13291.89861197  .00000064  00000-0  73220-3 0    38
2 21918 074.0825 236.4790 0126182 321.3763 095.8876 12.21626629  7361
0 SL-8 DEB
1 21918U 91009CB  13295.82248443  .00000068  00000-0  76945-3 0    40
2 21918 074.0829 231.5512 0126101 315.8508 072.4244 12.21627497  7846
